[{"OBJECT_NAME":"STARLINK-4559","OBJECT_ID":"2022-101AZ","EPOCH":"2026-03-09T09:18:08.173440","MEAN_MOTION":15.08834681,"ECCENTRICITY":0.00012957,"INCLINATION":53.2179,"RA_OF_ASC_NODE":55.1888,"ARG_OF_PERICENTER":93.4768,"MEAN_ANOMALY":266.6372,"EPHEMERIS_TYPE":0,"CLASSIFICATION_TYPE":"U","NORAD_CAT_ID":53574,"ELEMENT_SET_NO":999,"REV_AT_EPOCH":19640,"BSTAR":1.662287e-6,"MEAN_MOTION_DOT":-2.61e-6,"MEAN_MOTION_DDOT":0},{"OBJECT_NAME":"OBJECT A","OBJECT_ID":"2024-205A","EPOCH":"2026-03-09T23:47:25.060128","MEAN_MOTION":15.10420635,"ECCENTRICITY":0.00183963,"INCLINATION":97.4208,"RA_OF_ASC_NODE":142.0688,"ARG_OF_PERICENTER":137.3438,"MEAN_ANOMALY":222.9224,"EPHEMERIS_TYPE":0,"CLASSIFICATION_TYPE":"U","NORAD_CAT_ID":61894,"ELEMENT_SET_NO":999,"REV_AT_EPOCH":7322,"BSTAR":0.00061451018,"MEAN_MOTION_DOT":0.00010084,"MEAN_MOTION_DDOT":0}]
